STARLINK-3336           
1 50818U 22001R   24118.87992412 -.00000904  00000+0 -38732-4 0  9996
2 50818  53.2209 345.3909 0001582  74.8425 285.2742 15.08834183128905
STARLINK-3327           
1 50819U 22001S   24118.88729122 -.00003007  00000+0 -17098-3 0  9992
2 50819  53.2165 345.3658 0000650  71.8118 288.2945 15.08831538128830
STARLINK-3339           
1 50820U 22001T   24118.86888976 -.00003147  00000+0 -17977-3 0  9996
2 50820  53.2198 345.4480 0001193 102.5549 257.5576 15.08829874128902
STARLINK-3346           
1 50821U 22001U   24118.90935122 -.00002319  00000+0 -12770-3 0  9994
2 50821  53.2188 345.1481 0001058  86.2871 273.8242 15.08835389128882
STARLINK-3343           
1 50822U 22001V   24118.86153297 -.00001259  00000+0 -61069-4 0  9993
2 50822  53.2198 345.4781 0001518  83.2348 276.8817 15.08821499128874
STARLINK-3334           
1 50823U 22001W   24118.36471321  .00002085  00000+0  14905-3 0  9992
2 50823  53.2179 347.7091 0001308  93.0998 267.0144 15.08838939127556
STARLINK-3340           
1 50824U 22001X   24118.85784464 -.00002847  00000+0 -16092-3 0  9999
2 50824  53.2193 345.4974 0001345 111.2750 248.8386 15.08827863128895
STARLINK-3332           
1 50825U 22001Y   24118.86521344 -.00003020  00000+0 -17183-3 0  9993
2 50825  53.2188 345.4624 0001356 105.0825 255.0317 15.08824529128898
STARLINK-3337           
1 50826U 22001Z   24118.87378764  .00097218  00000+0  36673-2 0  9995
2 50826  53.2185 335.9753 0003373 222.7706 137.3032 15.26257117129046
STARLINK-3329           
1 50827U 22001AA  24118.34630654  .00000061  00000+0  21923-4 0  9991
2 50827  53.2180 347.7861 0001036 104.7067 255.4040 15.08839677127547
STARLINK-3290           
1 50828U 22001AB  24118.33253717  .00005611  00000+0  37029-3 0  9991
2 50828  53.2182 347.7372 0001531  84.9257 275.1909 15.08846528127396
STARLINK-3294           
1 50829U 22001AC  24118.88360158 -.00007425  00000+0 -44905-3 0  9998
2 50829  53.2177 345.3788 0000864  83.8022 276.3069 15.08829800128892
STARLINK-3278           
1 50830U 22001AD  24118.83483602 -.00003992  00000+0 -23290-3 0  9994
2 50830  53.2172 355.5943 0002121 113.8934 246.2280 15.08831529128756
STARLINK-3299           
1 50831U 22001AE  24118.91305271 -.00004377  00000+0 -25712-3 0  9998
2 50831  53.2186 345.3134 0001086  93.3033 266.8084 15.08834457128902
STARLINK-3328           
1 50832U 22001AF  24118.83580365 -.00006125  00000+0 -36726-3 0  9999
2 50832  53.2174 355.6433 0000923  73.7091 286.4002 15.08824023128738
STARLINK-3316           
1 50833U 22001AG  24118.91668981  .00155975  00000+0  44655-2 0  9995
2 50833  53.2067 314.8653 0008746 182.9194  15.4264 15.34840833129365
STARLINK-3331           
1 50834U 22001AH  24118.88636233 -.00003475  00000+0 -20045-3 0  9994
2 50834  53.2197 355.3685 0001562  84.2400 275.8770 15.08825946128764
STARLINK-3310           
1 50835U 22001AJ  24118.36013262  .00005972  00000+0  39283-3 0  9995
2 50835  53.2172 357.8396 0001125  72.9339 287.1776 15.08851637127402
STARLINK-3330           
1 50836U 22001AK  24118.86888632 -.00001839  00000+0 -97488-4 0  9994
2 50836  53.2178 355.2217 0000997  91.3920 268.7187 15.08837314128745
STARLINK-3318           
1 50837U 22001AL  24118.91671183 -.00000266  00000+0  13776-5 0  9993
2 50837  53.2174 345.2280 0001054  85.2113 274.9000 15.08841807128837
STARLINK-3322           
1 50838U 22001AM  24118.91186957 -.00002725  00000+0 -14623-3 0  9997
2 50838  53.2166 350.2929 0001248  79.5264 280.5869 15.10468421128761
STARLINK-3320           
1 50839U 22001AN  24118.40427396  .00004030  00000+0  27108-3 0  9998
2 50839  53.2191 357.5309 0001456  80.7883 279.3274 15.08846826127406
STARLINK-3295           
1 50840U 22001AP  24118.40059557  .00001706  00000+0  12526-3 0  9995
2 50840  53.2172 357.5471 0001812  71.8821 288.2368 15.08846539127400
STARLINK-3300           
1 50841U 22001AQ  24118.87531470  .00008210  00000+0  53319-3 0  9998
2 50841  53.2181 355.4114 0001161  88.9789 271.1336 15.08846946128781
STARLINK-3302           
1 50842U 22001AR  24118.86060033 -.00004126  00000+0 -24135-3 0  9998
2 50842  53.2197 355.4844 0001104 103.6887 256.4228 15.08836453128766
STARLINK-3325           
1 50843U 22001AS  24118.88268109 -.00001383  00000+0 -68816-4 0  9992
2 50843  53.2195 355.3850 0001437 100.1265 259.9889 15.08836004128686
STARLINK-3326           
1 50844U 22001AT  24118.38587661 -.00001216  00000+0 -58342-4 0  9993
2 50844  53.2171 357.6131 0001518  67.9506 292.1647 15.08835786127413
STARLINK-3230           
1 50845U 22001AU  24118.82747982 -.00005443  00000+0 -32434-3 0  9996
2 50845  53.2193 355.6319 0000856  95.3627 264.7463 15.08821785128716
STARLINK-3308           
1 50846U 22001AV  24118.92317015 -.00001978  00000+0 -10619-3 0  9998
2 50846  53.2180 355.3160 0001100 127.3597 232.7496 15.08843126128779
STARLINK-3319           
1 50847U 22001AW  24118.87259039  .00001835  00000+0  13333-3 0  9990
2 50847  53.2182 355.4363 0001181  93.8618 266.2510 15.08843858128689
STARLINK-3315           
1 50848U 22001AX  24118.84221827 -.00010654  00000+0 -65303-3 0  9997
2 50848  53.2172 355.5663 0001090  79.4674 280.6441 15.08798728128794
STARLINK-3311           
1 50849U 22001AY  24118.85323333  .00004900  00000+0  32588-3 0  9998
2 50849  53.2167 355.5179 0001317  98.4996 261.6145 15.08825038128684
STARLINK-3312           
1 50850U 22001AZ  24118.85692600 -.00001157  00000+0 -54630-4 0  9992
2 50850  53.2193 315.4983 0001127  94.8882 265.2239 15.08834251129329
STARLINK-3314           
1 50851U 22001BA  24118.83115904 -.00001792  00000+0 -94570-4 0  9990
2 50851  53.2186 355.5347 0001299  74.9602 285.1534 15.08829183128764
STARLINK-3366           
1 51104U 22005A   24118.65910085  .00001452  00000+0  10927-3 0  9993
2 51104  53.2172 106.3856 0001264  93.8566 266.2571 15.08844752127184
STARLINK-3350           
1 51105U 22005B   24118.69958841  .00000966  00000+0  78794-4 0  9996
2 51105  53.2154 106.2031 0001326  94.7353 265.3791 15.08839691127182
STARLINK-3176           
1 51106U 22005C   24118.67750083  .00004292  00000+0  28745-3 0  9999
2 51106  53.2166 106.3003 0001553  74.8682 285.2482 15.08858108127173
STARLINK-3368           
1 51107U 22005D   24118.41162268  .00001612  00000+0  11931-3 0  9996
2 51107  53.2155 117.4842 0001173 101.6015 258.5109 15.08846653125891
STARLINK-3362           
1 51108U 22005E   24118.69591202  .00000720  00000+0  63337-4 0  9998
2 51108  53.2150 106.2157 0001479  87.6024 272.5137 15.08837293127174
STARLINK-3358           
1 51109U 22005F   24118.38310754  .00000331  00000+0  38879-4 0  9997
2 51109  53.2164 107.5757 0001333  92.2738 267.8407 15.08837114125798
STARLINK-3344           
1 51110U 22005G   24118.68486974 -.00000345  00000+0 -35913-5 0  9994
2 51110  53.2170 106.2448 0002048  82.2361 277.8863 15.08836990127188
STARLINK-3173           
1 51111U 22005H   24118.66280005 -.00000744  00000+0 -28665-4 0  9998
2 51111  53.2179 106.3736 0001686 104.5773 255.5406 15.08833924127170
STARLINK-3374           
1 51112U 22005J   24118.68213722  .00001417  00000+0  10708-3 0  9997
2 51112  53.2184 106.2547 0002519  79.1547 280.9728 15.08847926127185
STARLINK-3372           
1 51113U 22005K   24118.40886263  .00003585  00000+0  24316-3 0  9992
2 51113  53.2173 107.5084 0001461 101.5161 258.5995 15.08849265126028
STARLINK-3375           
1 51114U 22005L   24118.29478589  .00001400  00000+0  10602-3 0  9995
2 51114  53.2156 108.0187 0001343  94.2959 265.8187 15.08846700126016
STARLINK-3397           
1 51115U 22005M   24118.40150866 -.00001804  00000+0 -95332-4 0  9998
2 51115  53.2151 107.5420 0001397  93.4135 266.7016 15.08829546126023
STARLINK-3243           
1 51116U 22005N   24118.67847231  .00003395  00000+0  23130-3 0  9998
2 51116  53.2172 106.2683 0001541  82.9372 277.1796 15.08842724127172
STARLINK-3391           
1 51117U 22005P   24118.37572994  .00004352  00000+0  29129-3 0  9995
2 51117  53.2156 107.5401 0001420  97.0856 263.0298 15.08851959126021
STARLINK-3394           
1 51118U 22005Q   24118.33895394  .00000742  00000+0  64687-4 0  9992
2 51118  53.2189 107.8267 0001820 103.5349 256.5846 15.08838726126017
STARLINK-3390           
1 51119U 22005R   24118.58334491  .00990087  00000+0  10230-1 0  9998
2 51119  53.2219  93.2769 0024759 145.0089 329.0333 15.61248018  5847
STARLINK-3398           
1 51120U 22005S   24118.24422365  .00001194  00000+0  93085-4 0  9995
2 51120  53.2194 108.2567 0001493 116.4273 243.6872 15.08842805127110
STARLINK-3399           
1 51121U 22005T   24118.65638085  .00001846  00000+0  13401-3 0  9996
2 51121  53.2171 106.4067 0001445  94.4137 265.7020 15.08845773127175
STARLINK-3373           
1 51122U 22005U   24118.91668981  .01189541  00000+0  10155-1 0  9995
2 51122  53.2170  99.0890 0037932 104.7784 202.5629 15.65581719127308
STARLINK-3392           
1 51123U 22005V   24118.70326386  .00001649  00000+0  12166-3 0  9990
2 51123  53.2174 106.1834 0001516 113.8709 246.2443 15.08844340127159
STARLINK-3389           
1 51124U 22005W   24118.41530560  .00001982  00000+0  14258-3 0  9994
2 51124  53.2155 117.4783 0001282  95.6430 264.4708 15.08846394125891
STARLINK-3387           
1 51125U 22005X   24118.40522257  .00000878  00000+0  73246-4 0  9994
2 51125  53.2173 117.5353 0001392  95.6919 264.4232 15.08849197125874
STARLINK-3386           
1 51126U 22005Y   24118.41258526 -.00000399  00000+0 -69500-5 0  9990
2 51126  53.2174 117.5010 0001365  94.3002 265.8146 15.08847472125890
STARLINK-3370           
1 51127U 22005Z   24118.40889732 -.00001760  00000+0 -92504-4 0  9991
2 51127  53.2167 117.5188 0001441  91.5870 268.5287 15.08841962125889
STARLINK-3400           
1 51128U 22005AA  24118.72073842  .00002626  00000+0  18296-3 0  9999
2 51128  53.2165 116.1059 0001319  91.8304 268.2839 15.08855376127043
